[{"OBJECT_NAME":"SL-8 R/B","OBJECT_ID":"1979-089B","EPOCH":"2026-03-18T06:38:26.531808","MEAN_MOTION":14.42356571,"ECCENTRICITY":0.00170523,"INCLINATION":74.067,"RA_OF_ASC_NODE":75.1461,"ARG_OF_PERICENTER":246.855,"MEAN_ANOMALY":113.081,"EPHEMERIS_TYPE":0,"CLASSIFICATION_TYPE":"U","NORAD_CAT_ID":11574,"ELEMENT_SET_NO":999,"REV_AT_EPOCH":43734,"BSTAR":9.364886e-5,"MEAN_MOTION_DOT":2.83e-6,"MEAN_MOTION_DDOT":0},{"OBJECT_NAME":"SL-14 R/B","OBJECT_ID":"1980-005B","EPOCH":"2026-03-18T02:48:19.364256","MEAN_MOTION":14.909399,"ECCENTRICITY":0.00168373,"INCLINATION":82.5129,"RA_OF_ASC_NODE":299.2417,"ARG_OF_PERICENTER":131.6415,"MEAN_ANOMALY":228.6249,"EPHEMERIS_TYPE":0,"CLASSIFICATION_TYPE":"U","NORAD_CAT_ID":11672,"ELEMENT_SET_NO":999,"REV_AT_EPOCH":47774,"BSTAR":5.1768064e-5,"MEAN_MOTION_DOT":5.38e-6,"MEAN_MOTION_DDOT":0},{"OBJECT_NAME":"SL-8 R/B","OBJECT_ID":"1981-003B","EPOCH":"2026-03-18T06:40:26.475744","MEAN_MOTION":15.11337376,"ECCENTRICITY":0.02614616,"INCLINATION":82.9364,"RA_OF_ASC_NODE":282.0816,"ARG_OF_PERICENTER":148.7031,"MEAN_ANOMALY":213.0072,"EPHEMERIS_TYPE":0,"CLASSIFICATION_TYPE":"U","NORAD_CAT_ID":12139,"ELEMENT_SET_NO":999,"REV_AT_EPOCH":31597,"BSTAR":0.00046623502,"MEAN_MOTION_DOT":0.00018358,"MEAN_MOTION_DDOT":0},{"OBJECT_NAME":"SL-3 R/B","OBJECT_ID":"1981-046B","EPOCH":"2026-03-18T06:49:51.390912","MEAN_MOTION":15.42207864,"ECCENTRICITY":0.00188716,"INCLINATION":81.2281,"RA_OF_ASC_NODE":279.421,"ARG_OF_PERICENTER":352.4277,"MEAN_ANOMALY":7.6677,"EPHEMERIS_TYPE":0,"CLASSIFICATION_TYPE":"U","NORAD_CAT_ID":12465,"ELEMENT_SET_NO":999,"REV_AT_EPOCH":43975,"BSTAR":0.00019749204,"MEAN_MOTION_DOT":8.56e-5,"MEAN_MOTION_DDOT":0},{"OBJECT_NAME":"SL-3 R/B","OBJECT_ID":"1981-103B","EPOCH":"2026-03-18T07:43:51.579264","MEAN_MOTION":15.21481275,"ECCENTRICITY":0.00124507,"INCLINATION":81.16,"RA_OF_ASC_NODE":203.3057,"ARG_OF_PERICENTER":255.669,"MEAN_ANOMALY":104.3159,"EPHEMERIS_TYPE":0,"CLASSIFICATION_TYPE":"U","NORAD_CAT_ID":12904,"ELEMENT_SET_NO":999,"REV_AT_EPOCH":97454,"BSTAR":0.00018974813,"MEAN_MOTION_DOT":4.299e-5,"MEAN_MOTION_DDOT":0},{"OBJECT_NAME":"SL-3 R/B","OBJECT_ID":"1982-013B","EPOCH":"2026-03-18T04:41:03.431040","MEAN_MOTION":15.22098955,"ECCENTRICITY":0.00231037,"INCLINATION":81.1757,"RA_OF_ASC_NODE":150.8026,"ARG_OF_PERICENTER":149.1325,"MEAN_ANOMALY":211.1272,"EPHEMERIS_TYPE":0,"CLASSIFICATION_TYPE":"U","NORAD_CAT_ID":13068,"ELEMENT_SET_NO":999,"REV_AT_EPOCH":40564,"BSTAR":0.00015891972,"MEAN_MOTION_DOT":3.691e-5,"MEAN_MOTION_DDOT":0},{"OBJECT_NAME":"SL-3 R/B","OBJECT_ID":"1982-039B","EPOCH":"2026-03-18T06:29:48.206112","MEAN_MOTION":15.10130377,"ECCENTRICITY":0.00293155,"INCLINATION":81.1579,"RA_OF_ASC_NODE":206.0683,"ARG_OF_PERICENTER":296.3365,"MEAN_ANOMALY":63.485,"EPHEMERIS_TYPE":0,"CLASSIFICATION_TYPE":"U","NORAD_CAT_ID":13154,"ELEMENT_SET_NO":999,"REV_AT_EPOCH":38293,"BSTAR":0.00013203865,"MEAN_MOTION_DOT":2.197e-5,"MEAN_MOTION_DDOT":0},{"OBJECT_NAME":"SL-3 R/B","OBJECT_ID":"1982-079B","EPOCH":"2026-03-18T04:44:24.277344","MEAN_MOTION":15.24922573,"ECCENTRICITY":0.00253589,"INCLINATION":81.149,"RA_OF_ASC_NODE":183.0324,"ARG_OF_PERICENTER":136.5706,"MEAN_ANOMALY":223.7531,"EPHEMERIS_TYPE":0,"CLASSIFICATION_TYPE":"U","NORAD_CAT_ID":13403,"ELEMENT_SET_NO":999,"REV_AT_EPOCH":37899,"BSTAR":0.00019947288,"MEAN_MOTION_DOT":5.037e-5,"MEAN_MOTION_DDOT":0},{"OBJECT_NAME":"SL-14 R/B","OBJECT_ID":"1982-092B","EPOCH":"2026-03-18T02:51:13.716864","MEAN_MOTION":14.86674179,"ECCENTRICITY":0.0018751,"INCLINATION":82.5677,"RA_OF_ASC_NODE":133.5152,"ARG_OF_PERICENTER":273.4594,"MEAN_ANOMALY":119.8772,"EPHEMERIS_TYPE":0,"CLASSIFICATION_TYPE":"U","NORAD_CAT_ID":13553,"ELEMENT_SET_NO":999,"REV_AT_EPOCH":33018,"BSTAR":4.1643603e-5,"MEAN_MOTION_DOT":3.95e-6,"MEAN_MOTION_DDOT":0},{"OBJECT_NAME":"SL-3 R/B","OBJECT_ID":"1983-010B","EPOCH":"2026-03-17T20:22:11.428896","MEAN_MOTION":15.46645678,"ECCENTRICITY":0.00172063,"INCLINATION":81.1068,"RA_OF_ASC_NODE":352.2435,"ARG_OF_PERICENTER":24.3125,"MEAN_ANOMALY":335.8928,"EPHEMERIS_TYPE":0,"CLASSIFICATION_TYPE":"U","NORAD_CAT_ID":13819,"ELEMENT_SET_NO":999,"REV_AT_EPOCH":35920,"BSTAR":0.00025013847,"MEAN_MOTION_DOT":0.00012579,"MEAN_MOTION_DDOT":0},{"OBJECT_NAME":"SL-3 R/B","OBJECT_ID":"1983-075B","EPOCH":"2026-03-18T06:32:06.855648","MEAN_MOTION":15.38619252,"ECCENTRICITY":0.00210156,"INCLINATION":97.6135,"RA_OF_ASC_NODE":82.1754,"ARG_OF_PERICENTER":193.7675,"MEAN_ANOMALY":166.2999,"EPHEMERIS_TYPE":0,"CLASSIFICATION_TYPE":"U","NORAD_CAT_ID":14208,"ELEMENT_SET_NO":999,"REV_AT_EPOCH":33147,"BSTAR":0.00021917335,"MEAN_MOTION_DOT":8.332e-5,"MEAN_MOTION_DDOT":0},{"OBJECT_NAME":"COSMOS 1536","OBJECT_ID":"1984-013A","EPOCH":"2026-03-18T07:43:29.663040","MEAN_MOTION":15.2393882,"ECCENTRICITY":0.0012558,"INCLINATION":82.5413,"RA_OF_ASC_NODE":99.2666,"ARG_OF_PERICENTER":248.9361,"MEAN_ANOMALY":111.0533,"EPHEMERIS_TYPE":0,"CLASSIFICATION_TYPE":"U","NORAD_CAT_ID":14699,"ELEMENT_SET_NO":999,"REV_AT_EPOCH":27393,"BSTAR":0.00021189944,"MEAN_MOTION_DOT":5.164e-5,"MEAN_MOTION_DDOT":0},{"OBJECT_NAME":"SL-14 R/B","OBJECT_ID":"1984-027B","EPOCH":"2026-03-18T02:38:49.272864","MEAN_MOTION":14.85985228,"ECCENTRICITY":0.00167723,"INCLINATION":82.5396,"RA_OF_ASC_NODE":237.1135,"ARG_OF_PERICENTER":308.6776,"MEAN_ANOMALY":51.294,"EPHEMERIS_TYPE":0,"CLASSIFICATION_TYPE":"U","NORAD_CAT_ID":14820,"ELEMENT_SET_NO":999,"REV_AT_EPOCH":24888,"BSTAR":4.9292522e-5,"MEAN_MOTION_DOT":4.55e-6,"MEAN_MOTION_DDOT":0},{"OBJECT_NAME":"SL-8 R/B","OBJECT_ID":"1985-006B","EPOCH":"2026-03-17T22:45:37.223136","MEAN_MOTION":14.37789274,"ECCENTRICITY":0.00180977,"INCLINATION":74.0436,"RA_OF_ASC_NODE":245.95,"ARG_OF_PERICENTER":161.56,"MEAN_ANOMALY":313.5292,"EPHEMERIS_TYPE":0,"CLASSIFICATION_TYPE":"U","NORAD_CAT_ID":15483,"ELEMENT_SET_NO":999,"REV_AT_EPOCH":15521,"BSTAR":0.00010830048,"MEAN_MOTION_DOT":3.01e-6,"MEAN_MOTION_DDOT":0},{"OBJECT_NAME":"SL-12 R/B(2)","OBJECT_ID":"1985-042D","EPOCH":"2026-03-18T06:23:58.928928","MEAN_MOTION":14.21984837,"ECCENTRICITY":0.0032988,"INCLINATION":71.1067,"RA_OF_ASC_NODE":69.6061,"ARG_OF_PERICENTER":113.996,"MEAN_ANOMALY":257.5133,"EPHEMERIS_TYPE":0,"CLASSIFICATION_TYPE":"U","NORAD_CAT_ID":15772,"ELEMENT_SET_NO":999,"REV_AT_EPOCH":11561,"BSTAR":2.7932643e-5,"MEAN_MOTION_DOT":1.5e-7,"MEAN_MOTION_DDOT":0},{"OBJECT_NAME":"SL-14 R/B","OBJECT_ID":"1985-069B","EPOCH":"2026-03-18T07:04:02.214912","MEAN_MOTION":14.86443028,"ECCENTRICITY":0.00192566,"INCLINATION":82.5298,"RA_OF_ASC_NODE":16.8434,"ARG_OF_PERICENTER":159.3465,"MEAN_ANOMALY":200.8535,"EPHEMERIS_TYPE":0,"CLASSIFICATION_TYPE":"U","NORAD_CAT_ID":15945,"ELEMENT_SET_NO":999,"REV_AT_EPOCH":17411,"BSTAR":5.4443434e-5,"MEAN_MOTION_DOT":5.07e-6,"MEAN_MOTION_DDOT":0},{"OBJECT_NAME":"SL-16 R/B","OBJECT_ID":"1985-097B","EPOCH":"2026-03-18T07:43:13.101888","MEAN_MOTION":14.16599372,"ECCENTRICITY":0.00096455,"INCLINATION":71.0014,"RA_OF_ASC_NODE":122.3816,"ARG_OF_PERICENTER":249.1494,"MEAN_ANOMALY":186.0718,"EPHEMERIS_TYPE":0,"CLASSIFICATION_TYPE":"U","NORAD_CAT_ID":16182,"ELEMENT_SET_NO":999,"REV_AT_EPOCH":8845,"BSTAR":0.00014423355,"MEAN_MOTION_DOT":2.4e-6,"MEAN_MOTION_DDOT":0}]
