SL-8 R/B                
1 11574U 79089B   26077.27669597  .00000283  00000+0  93649-4 0  9991
2 11574  74.0670  75.1461 0017052 246.8550 113.0810 14.42356571437346
SL-14 R/B               
1 11672U 80005B   26077.11689079  .00000538  00000+0  51768-4 0  9999
2 11672  82.5129 299.2417 0016837 131.6415 228.6249 14.90939900477742
SL-8 R/B                
1 12139U 81003B   26077.27808421  .00018358  00000+0  46624-3 0  9991
2 12139  82.9364 282.0816 0261461 148.7031 213.0072 15.11337376315978
SL-3 R/B                
1 12465U 81046B   26077.28462258  .00008560  00000+0  19749-3 0  9997
2 12465  81.2281 279.4210 0018871 352.4277   7.6677 15.42207864439752
SL-3 R/B                
1 12904U 81103B   26077.32212476  .00004299  00000+0  18975-3 0  9994
2 12904  81.1600 203.3057 0012450 255.6690 104.3159 15.21481275974547
SL-3 R/B                
1 13068U 82013B   26077.19517860  .00003691  00000+0  15892-3 0  9997
2 13068  81.1757 150.8026 0023103 149.1325 211.1272 15.22098955405646
SL-3 R/B                
1 13154U 82039B   26077.27069683  .00002197  00000+0  13204-3 0  9990
2 13154  81.1579 206.0683 0029315 296.3365  63.4850 15.10130377382935
SL-3 R/B                
1 13403U 82079B   26077.19750321  .00005037  00000+0  19947-3 0  9994
2 13403  81.1490 183.0324 0025358 136.5706 223.7531 15.24922573378997
SL-14 R/B               
1 13553U 82092B   26077.11890876  .00000395  00000+0  41644-4 0  9999
2 13553  82.5677 133.5152 0018751 273.4594 119.8772 14.86674179330183
SL-3 R/B                
1 13819U 83010B   26076.84874339  .00012579  00000+0  25014-3 0  9999
2 13819  81.1068 352.2435 0017206  24.3125 335.8928 15.46645678359204
SL-3 R/B                
1 14208U 83075B   26077.27230157  .00008332  00000+0  21917-3 0  9995
2 14208  97.6135  82.1754 0021015 193.7675 166.2999 15.38619252331474
COSMOS 1536             
1 14699U 84013A   26077.32187110  .00005164  00000+0  21190-3 0  9991
2 14699  82.5413  99.2666 0012558 248.9361 111.0533 15.23938820273935
SL-14 R/B               
1 14820U 84027B   26077.11029251  .00000455  00000+0  49293-4 0  9993
2 14820  82.5396 237.1135 0016772 308.6776  51.2940 14.85985228248885
SL-8 R/B                
1 15483U 85006B   26076.94834749  .00000301  00000+0  10830-3 0  9997
2 15483  74.0436 245.9500 0018097 161.5600 313.5292 14.37789274155217
SL-12 R/B(2)            
1 15772U 85042D   26077.26665427  .00000015  00000+0  27933-4 0  9994
2 15772  71.1067  69.6061 0032988 113.9960 257.5133 14.21984837115610
SL-14 R/B               
1 15945U 85069B   26077.29447008  .00000507  00000+0  54443-4 0  9993
2 15945  82.5298  16.8434 0019256 159.3465 200.8535 14.86443028174119
SL-16 R/B               
1 16182U 85097B   26077.32167942  .00000240  00000+0  14423-3 0  9995
2 16182  71.0014 122.3816 0009645 249.1494 186.0718 14.16599372 88456
